{
  "type": "FeatureCollection",
  "features": [
    {
      "type": "Feature",
      "properties": {
        "norad_id": 66410,
        "name": "CHUTIAN-2 B",
        "group": "last-30-days",
        "lat": 28.956437631457074,
        "lon": -129.53043490791484,
        "alt_km": 714.6165026427998,
        "timestamp": "2025-12-06T22:38:41.507235+00:00",
        "meta_object_name": "CHUTIAN-2 B",
        "meta_object_id": "2025-256B",
        "meta_epoch": "2025-12-06T13:40:38.362944",
        "meta_mean_motion": 14.51013913,
        "meta_eccentricity": 0.00134521,
        "meta_inclination": 98.2803,
        "meta_ra_of_asc_node": 45.48,
        "meta_arg_of_pericenter": 200.2195,
        "meta_mean_anomaly": 159.8468,
        "meta_ephemeris_type": 0,
        "meta_classification_type": "U",
        "meta_norad_cat_id": 66410,
        "meta_element_set_no": 999,
        "meta_rev_at_epoch": 398,
        "meta_bstar": 0.00034454829,
        "meta_mean_motion_dot": 1.32e-05,
        "meta_mean_motion_ddot": 0,
        "tle_line1": "1 66410U 25256B   25340.56988846  .00001320  00000+0  34455-3 0  9994",
        "tle_line2": "2 66410  98.2803  45.4800 0013452 200.2195 159.8468 14.51013913  3983"
      },
      "geometry": {
        "type": "Point",
        "coordinates": [
          -129.53043490791484,
          28.956437631457074
        ]
      }
    },
    {
      "type": "Feature",
      "properties": {
        "norad_id": 66411,
        "name": "ZK-1A R/B",
        "group": "last-30-days",
        "lat": 44.84694361321378,
        "lon": -123.32125920887754,
        "alt_km": 657.3147016583434,
        "timestamp": "2025-12-06T22:38:41.507246+00:00",
        "meta_object_name": "ZK-1A R/B",
        "meta_object_id": "2025-256C",
        "meta_epoch": "2025-12-06T12:25:58.282752",
        "meta_mean_motion": 15.01758996,
        "meta_eccentricity": 0.02289872,
        "meta_inclination": 98.3235,
        "meta_ra_of_asc_node": 47.8488,
        "meta_arg_of_pericenter": 265.7551,
        "meta_mean_anomaly": 91.7476,
        "meta_ephemeris_type": 0,
        "meta_classification_type": "U",
        "meta_norad_cat_id": 66411,
        "meta_element_set_no": 999,
        "meta_rev_at_epoch": 411,
        "meta_bstar": 0.00093350899,
        "meta_mean_motion_dot": 0.0002149,
        "meta_mean_motion_ddot": 0,
        "tle_line1": "1 66411U 25256C   25340.51803568  .00021490  00000+0  93351-3 0  9997",
        "tle_line2": "2 66411  98.3235  47.8488 0228987 265.7551  91.7476 15.01758996  4117"
      },
      "geometry": {
        "type": "Point",
        "coordinates": [
          -123.32125920887754,
          44.84694361321378
        ]
      }
    },
    {
      "type": "Feature",
      "properties": {
        "norad_id": 66412,
        "name": "HULIANWANG DIGUI 13A",
        "group": "last-30-days",
        "lat": -35.12741830467951,
        "lon": -109.81347901546465,
        "alt_km": 812.2623842887833,
        "timestamp": "2025-12-06T22:38:41.507256+00:00",
        "meta_object_name": "HULIANWANG DIGUI 13A",
        "meta_object_id": "2025-258A",
        "meta_epoch": "2025-12-05T21:34:54.424128",
        "meta_mean_motion": 14.22483467,
        "meta_eccentricity": 0.0013174,
        "meta_inclination": 50.0056,
        "meta_ra_of_asc_node": 290.773,
        "meta_arg_of_pericenter": 333.7456,
        "meta_mean_anomaly": 26.2788,
        "meta_ephemeris_type": 0,
        "meta_classification_type": "U",
        "meta_norad_cat_id": 66412,
        "meta_element_set_no": 999,
        "meta_rev_at_epoch": 368,
        "meta_bstar": 0.00033228063,
        "meta_mean_motion_dot": 5.88e-06,
        "meta_mean_motion_ddot": 0,
        "tle_line1": "1 66412U 25258A   25339.89924102  .00000588  00000+0  33228-3 0  9999",
        "tle_line2": "2 66412  50.0056 290.7730 0013174 333.7456  26.2788 14.22483467  3683"
      },
      "geometry": {
        "type": "Point",
        "coordinates": [
          -109.81347901546465,
          -35.12741830467951
        ]
      }
    },
    {
      "type": "Feature",
      "properties": {
        "norad_id": 66413,
        "name": "HULIANWANG DIGUI 13B",
        "group": "last-30-days",
        "lat": -49.84033928601889,
        "lon": -169.30242927891578,
        "alt_km": 822.3369018671674,
        "timestamp": "2025-12-06T22:38:41.507271+00:00",
        "meta_object_name": "HULIANWANG DIGUI 13B",
        "meta_object_id": "2025-258B",
        "meta_epoch": "2025-12-06T11:16:22.288224",
        "meta_mean_motion": 14.21453011,
        "meta_eccentricity": 0.00109256,
        "meta_inclination": 50.0012,
        "meta_ra_of_asc_node": 288.4452,
        "meta_arg_of_pericenter": 335.6563,
        "meta_mean_anomaly": 24.3832,
        "meta_ephemeris_type": 0,
        "meta_classification_type": "U",
        "meta_norad_cat_id": 66413,
        "meta_element_set_no": 999,
        "meta_rev_at_epoch": 376,
        "meta_bstar": 0.00038060221,
        "meta_mean_motion_dot": 6.8e-06,
        "meta_mean_motion_ddot": 0,
        "tle_line1": "1 66413U 25258B   25340.46970241  .00000680  00000+0  38060-3 0  9992",
        "tle_line2": "2 66413  50.0012 288.4452 0010925 335.6563  24.3832 14.21453011  3761"
      },
      "geometry": {
        "type": "Point",
        "coordinates": [
          -169.30242927891578,
          -49.84033928601889
        ]
      }
    },
    {
      "type": "Feature",
      "properties": {
        "norad_id": 66414,
        "name": "HULIANWANG DIGUI 13C",
        "group": "last-30-days",
        "lat": -47.16417931977128,
        "lon": -138.44591732255776,
        "alt_km": 815.0479800781195,
        "timestamp": "2025-12-06T22:38:41.507281+00:00",
        "meta_object_name": "HULIANWANG DIGUI 13C",
        "meta_object_id": "2025-258C",
        "meta_epoch": "2025-12-05T09:53:35.287008",
        "meta_mean_motion": 14.2244177,
        "meta_eccentricity": 0.00137409,
        "meta_inclination": 50.0052,
        "meta_ra_of_asc_node": 292.8676,
        "meta_arg_of_pericenter": 331.0235,
        "meta_mean_anomaly": 28.9914,
        "meta_ephemeris_type": 0,
        "meta_classification_type": "U",
        "meta_norad_cat_id": 66414,
        "meta_element_set_no": 999,
        "meta_rev_at_epoch": 361,
        "meta_bstar": 0.00035499636,
        "meta_mean_motion_dot": 6.38e-06,
        "meta_mean_motion_ddot": 0,
        "tle_line1": "1 66414U 25258C   25339.41221397  .00000638  00000+0  35500-3 0  9996",
        "tle_line2": "2 66414  50.0052 292.8676 0013740 331.0235  28.9914 14.22441770  3612"
      },
      "geometry": {
        "type": "Point",
        "coordinates": [
          -138.44591732255776,
          -47.16417931977128
        ]
      }
    },
    {
      "type": "Feature",
      "properties": {
        "norad_id": 66415,
        "name": "HULIANWANG DIGUI 13D",
        "group": "last-30-days",
        "lat": -30.497484850690753,
        "lon": -103.25622467336902,
        "alt_km": 813.3480623007626,
        "timestamp": "2025-12-06T22:38:41.507294+00:00",
        "meta_object_name": "HULIANWANG DIGUI 13D",
        "meta_object_id": "2025-258D",
        "meta_epoch": "2025-12-06T05:58:33.476448",
        "meta_mean_motion": 14.22277403,
        "meta_eccentricity": 0.00117964,
        "meta_inclination": 50.0081,
        "meta_ra_of_asc_node": 289.2904,
        "meta_arg_of_pericenter": 338.5635,
        "meta_mean_anomaly": 21.4782,
        "meta_ephemeris_type": 0,
        "meta_classification_type": "U",
        "meta_norad_cat_id": 66415,
        "meta_element_set_no": 999,
        "meta_rev_at_epoch": 373,
        "meta_bstar": 0.00033182865,
        "meta_mean_motion_dot": 5.84e-06,
        "meta_mean_motion_ddot": 0,
        "tle_line1": "1 66415U 25258D   25340.24899857  .00000584  00000+0  33183-3 0  9997",
        "tle_line2": "2 66415  50.0081 289.2904 0011796 338.5635  21.4782 14.22277403  3738"
      },
      "geometry": {
        "type": "Point",
        "coordinates": [
          -103.25622467336902,
          -30.497484850690753
        ]
      }
    },
    {
      "type": "Feature",
      "properties": {
        "norad_id": 66416,
        "name": "HULIANWANG DIGUI 13E",
        "group": "last-30-days",
        "lat": -44.143592768196626,
        "lon": -128.1494834753887,
        "alt_km": 816.8472218553161,
        "timestamp": "2025-12-06T22:38:41.507304+00:00",
        "meta_object_name": "HULIANWANG DIGUI 13E",
        "meta_object_id": "2025-258E",
        "meta_epoch": "2025-12-05T21:39:19.515744",
        "meta_mean_motion": 14.22215324,
        "meta_eccentricity": 0.00111953,
        "meta_inclination": 50.0052,
        "meta_ra_of_asc_node": 290.7863,
        "meta_arg_of_pericenter": 340.1554,
        "meta_mean_anomaly": 19.8921,
        "meta_ephemeris_type": 0,
        "meta_classification_type": "U",
        "meta_norad_cat_id": 66416,
        "meta_element_set_no": 999,
        "meta_rev_at_epoch": 368,
        "meta_bstar": 0.00039075783,
        "meta_mean_motion_dot": 7.14e-06,
        "meta_mean_motion_ddot": 0,
        "tle_line1": "1 66416U 25258E   25339.90230921  .00000714  00000+0  39076-3 0  9992",
        "tle_line2": "2 66416  50.0052 290.7863 0011195 340.1554  19.8921 14.22215324  3684"
      },
      "geometry": {
        "type": "Point",
        "coordinates": [
          -128.1494834753887,
          -44.143592768196626
        ]
      }
    }
  ]
}